{"type":"FeatureCollection","features":[{"type":"Feature","properties":{"id":"arg","name":"Argentine","rank":2,"minzoom":2},"geometry":{"type":"Point","coordinates":[-64.173,-33.501]}},{"type":"Feature","properties":{"id":"aus","name":"Australie","rank":2,"minzoom":1.7},"geometry":{"type":"Point","coordinates":[134.05,-24.13]}},{"type":"Feature","properties":{"id":"bel","name":"Belgique","rank":2,"minzoom":4},"geometry":{"type":"Point","coordinates":[4.8,50.785]}},{"type":"Feature","properties":{"id":"bra","name":"Brésil","rank":2,"minzoom":1.7},"geometry":{"type":"Point","coordinates":[-49.559,-12.099]}},{"type":"Feature","properties":{"id":"can","name":"Canada","rank":2,"minzoom":1.7},"geometry":{"type":"Point","coordinates":[-101.911,60.324]}},{"type":"Feature","properties":{"id":"chl","name":"Chili","rank":2,"minzoom":1.7},"geometry":{"type":"Point","coordinates":[-72.319,-38.152]}},{"type":"Feature","properties":{"id":"chn","name":"Chine","rank":2,"minzoom":1.7},"geometry":{"type":"Point","coordinates":[106.337,32.498]}},{"type":"Feature","properties":{"id":"cod","name":"RD Congo","rank":2,"minzoom":2},"geometry":{"type":"Point","coordinates":[23.459,-1.858]}},{"type":"Feature","properties":{"id":"col","name":"Colombie","rank":2,"minzoom":3},"geometry":{"type":"Point","coordinates":[-73.174,3.373]}},{"type":"Feature","properties":{"id":"deu","name":"Allemagne","rank":2,"minzoom":1.7},"geometry":{"type":"Point","coordinates":[9.678,50.962]}},{"type":"Feature","properties":{"id":"egy","name":"Égypte","rank":2,"minzoom":1.7},"geometry":{"type":"Point","coordinates":[29.446,26.186]}},{"type":"Feature","properties":{"id":"esp","name":"Espagne","rank":2,"minzoom":2},"geometry":{"type":"Point","coordinates":[-3.465,40.091]}},{"type":"Feature","properties":{"id":"eth","name":"Éthiopie","rank":2,"minzoom":2},"geometry":{"type":"Point","coordinates":[39.089,8.033]}},{"type":"Feature","properties":{"id":"fra","name":"France","rank":2,"minzoom":1.7},"geometry":{"type":"Point","coordinates":[2.552,46.696]}},{"type":"Feature","properties":{"id":"gbr","name":"Royaume-Uni","rank":2,"minzoom":1.7},"geometry":{"type":"Point","coordinates":[-2.116,54.403]}},{"type":"Feature","properties":{"id":"idn","name":"Indonésie","rank":2,"minzoom":1.7},"geometry":{"type":"Point","coordinates":[101.893,-0.954]}},{"type":"Feature","properties":{"id":"ind","name":"Inde","rank":2,"minzoom":1.7},"geometry":{"type":"Point","coordinates":[79.358,22.687]}},{"type":"Feature","properties":{"id":"irn","name":"Iran","rank":2,"minzoom":2.5},"geometry":{"type":"Point","coordinates":[54.931,32.166]}},{"type":"Feature","properties":{"id":"ita","name":"Italie","rank":2,"minzoom":2},"geometry":{"type":"Point","coordinates":[11.077,44.732]}},{"type":"Feature","properties":{"id":"jpn","name":"Japon","rank":2,"minzoom":1.7},"geometry":{"type":"Point","coordinates":[138.442,36.143]}},{"type":"Feature","properties":{"id":"ken","name":"Kenya","rank":2,"minzoom":1.7},"geometry":{"type":"Point","coordinates":[37.908,0.549]}},{"type":"Feature","properties":{"id":"kor","name":"Corée du Sud","rank":2,"minzoom":2.5},"geometry":{"type":"Point","coordinates":[128.13,36.385]}},{"type":"Feature","properties":{"id":"mex","name":"Mexique","rank":2,"minzoom":2},"geometry":{"type":"Point","coordinates":[-102.289,23.92]}},{"type":"Feature","properties":{"id":"nga","name":"Nigeria","rank":2,"minzoom":1.7},"geometry":{"type":"Point","coordinates":[7.503,9.44]}},{"type":"Feature","properties":{"id":"nzl","name":"Nouvelle-Zélande","rank":2,"minzoom":2},"geometry":{"type":"Point","coordinates":[172.787,-39.759]}},{"type":"Feature","properties":{"id":"pak","name":"Pakistan","rank":2,"minzoom":2.7},"geometry":{"type":"Point","coordinates":[68.546,29.328]}},{"type":"Feature","properties":{"id":"per","name":"Pérou","rank":2,"minzoom":2},"geometry":{"type":"Point","coordinates":[-72.9,-12.977]}},{"type":"Feature","properties":{"id":"phl","name":"Philippines","rank":2,"minzoom":2.5},"geometry":{"type":"Point","coordinates":[122.465,11.198]}},{"type":"Feature","properties":{"id":"png","name":"Papouasie-Nouvelle-Guinée","rank":2,"minzoom":2.5},"geometry":{"type":"Point","coordinates":[143.91,-5.695]}},{"type":"Feature","properties":{"id":"prt","name":"Portugal","rank":2,"minzoom":3},"geometry":{"type":"Point","coordinates":[-8.272,39.607]}},{"type":"Feature","properties":{"id":"rus","name":"Russie","rank":2,"minzoom":1.7},"geometry":{"type":"Point","coordinates":[44.686,58.249]}},{"type":"Feature","properties":{"id":"sau","name":"Arabie saoudite","rank":2,"minzoom":1.7},"geometry":{"type":"Point","coordinates":[44.7,23.807]}},{"type":"Feature","properties":{"id":"tur","name":"Turquie","rank":2,"minzoom":2},"geometry":{"type":"Point","coordinates":[34.508,39.345]}},{"type":"Feature","properties":{"id":"usa","name":"États-Unis","rank":2,"minzoom":1.7},"geometry":{"type":"Point","coordinates":[-97.483,39.538]}},{"type":"Feature","properties":{"id":"vnm","name":"Viêt Nam","rank":2,"minzoom":2},"geometry":{"type":"Point","coordinates":[105.387,21.715]}},{"type":"Feature","properties":{"id":"zaf","name":"Afrique du Sud","rank":2,"minzoom":1.7},"geometry":{"type":"Point","coordinates":[23.666,-29.709]}},{"type":"Feature","properties":{"id":"afg","name":"Afghanistan","rank":3,"minzoom":3},"geometry":{"type":"Point","coordinates":[66.497,34.164]}},{"type":"Feature","properties":{"id":"ago","name":"Angola","rank":3,"minzoom":3},"geometry":{"type":"Point","coordinates":[17.984,-12.183]}},{"type":"Feature","properties":{"id":"bfa","name":"Burkina Faso","rank":3,"minzoom":3},"geometry":{"type":"Point","coordinates":[-1.364,12.673]}},{"type":"Feature","properties":{"id":"bgd","name":"Bangladesh","rank":3,"minzoom":3},"geometry":{"type":"Point","coordinates":[89.685,24.215]}},{"type":"Feature","properties":{"id":"bol","name":"Bolivie","rank":3,"minzoom":3},"geometry":{"type":"Point","coordinates":[-64.593,-16.666]}},{"type":"Feature","properties":{"id":"civ","name":"Côte d'Ivoire","rank":3,"minzoom":2.5},"geometry":{"type":"Point","coordinates":[-5.569,7.491]}},{"type":"Feature","properties":{"id":"cmr","name":"Cameroun","rank":3,"minzoom":3},"geometry":{"type":"Point","coordinates":[12.473,4.585]}},{"type":"Feature","properties":{"id":"cub","name":"Cuba","rank":3,"minzoom":2.7},"geometry":{"type":"Point","coordinates":[-77.976,21.334]}},{"type":"Feature","properties":{"id":"dza","name":"Algérie","rank":3,"minzoom":2.5},"geometry":{"type":"Point","coordinates":[2.808,27.397]}},{"type":"Feature","properties":{"id":"ecu","name":"Équateur","rank":3,"minzoom":3},"geometry":{"type":"Point","coordinates":[-78.188,-1.259]}},{"type":"Feature","properties":{"id":"fin","name":"Finlande","rank":3,"minzoom":3},"geometry":{"type":"Point","coordinates":[27.276,63.252]}},{"type":"Feature","properties":{"id":"gha","name":"Ghana","rank":3,"minzoom":2.7},"geometry":{"type":"Point","coordinates":[-1.037,7.718]}},{"type":"Feature","properties":{"id":"gin","name":"Guinée","rank":3,"minzoom":3},"geometry":{"type":"Point","coordinates":[-10.016,10.619]}},{"type":"Feature","properties":{"id":"grc","name":"Grèce","rank":3,"minzoom":2.7},"geometry":{"type":"Point","coordinates":[21.726,39.493]}},{"type":"Feature","properties":{"id":"gtm","name":"Guatemala","rank":3,"minzoom":3},"geometry":{"type":"Point","coordinates":[-90.497,14.982]}},{"type":"Feature","properties":{"id":"irl","name":"Irlande","rank":3,"minzoom":3},"geometry":{"type":"Point","coordinates":[-7.799,53.079]}},{"type":"Feature","properties":{"id":"irq","name":"Irak","rank":3,"minzoom":3},"geometry":{"type":"Point","coordinates":[43.262,33.094]}},{"type":"Feature","properties":{"id":"isl","name":"Islande","rank":3,"minzoom":2},"geometry":{"type":"Point","coordinates":[-18.674,64.779]}},{"type":"Feature","properties":{"id":"kaz","name":"Kazakhstan","rank":3,"minzoom":2.7},"geometry":{"type":"Point","coordinates":[68.686,49.054]}},{"type":"Feature","properties":{"id":"khm","name":"Cambodge","rank":3,"minzoom":3},"geometry":{"type":"Point","coordinates":[104.505,12.648]}},{"type":"Feature","properties":{"id":"lby","name":"Libye","rank":3,"minzoom":3},"geometry":{"type":"Point","coordinates":[18.011,26.639]}},{"type":"Feature","properties":{"id":"lka","name":"Sri Lanka","rank":3,"minzoom":3},"geometry":{"type":"Point","coordinates":[80.705,7.581]}},{"type":"Feature","properties":{"id":"mar","name":"Maroc","rank":3,"minzoom":2.7},"geometry":{"type":"Point","coordinates":[-7.187,31.651]}},{"type":"Feature","properties":{"id":"mdg","name":"Madagascar","rank":3,"minzoom":2.7},"geometry":{"type":"Point","coordinates":[46.704,-18.628]}},{"type":"Feature","properties":{"id":"mli","name":"Mali","rank":3,"minzoom":3},"geometry":{"type":"Point","coordinates":[-2.038,18.693]}},{"type":"Feature","properties":{"id":"mmr","name":"Birmanie","rank":3,"minzoom":3},"geometry":{"type":"Point","coordinates":[95.804,21.574]}},{"type":"Feature","properties":{"id":"mng","name":"Mongolie","rank":3,"minzoom":3},"geometry":{"type":"Point","coordinates":[104.15,45.997]}},{"type":"Feature","properties":{"id":"moz","name":"Mozambique","rank":3,"minzoom":3},"geometry":{"type":"Point","coordinates":[37.838,-13.943]}},{"type":"Feature","properties":{"id":"mrt","name":"Mauritanie","rank":3,"minzoom":3},"geometry":{"type":"Point","coordinates":[-9.74,19.587]}},{"type":"Feature","properties":{"id":"mys","name":"Malaisie","rank":3,"minzoom":3},"geometry":{"type":"Point","coordinates":[113.837,2.529]}},{"type":"Feature","properties":{"id":"nam","name":"Namibie","rank":3,"minzoom":3},"geometry":{"type":"Point","coordinates":[17.108,-20.575]}},{"type":"Feature","properties":{"id":"ner","name":"Niger","rank":3,"minzoom":3},"geometry":{"type":"Point","coordinates":[9.504,17.446]}},{"type":"Feature","properties":{"id":"nor","name":"Norvège","rank":3,"minzoom":3},"geometry":{"type":"Point","coordinates":[9.68,61.357]}},{"type":"Feature","properties":{"id":"npl","name":"Népal","rank":3,"minzoom":3},"geometry":{"type":"Point","coordinates":[83.64,28.298]}},{"type":"Feature","properties":{"id":"pol","name":"Pologne","rank":3,"minzoom":2.5},"geometry":{"type":"Point","coordinates":[19.49,51.99]}},{"type":"Feature","properties":{"id":"prk","name":"Corée du Nord","rank":3,"minzoom":3},"geometry":{"type":"Point","coordinates":[126.445,39.885]}},{"type":"Feature","properties":{"id":"rou","name":"Roumanie","rank":3,"minzoom":3},"geometry":{"type":"Point","coordinates":[24.973,45.733]}},{"type":"Feature","properties":{"id":"rwa","name":"Rwanda","rank":3,"minzoom":3},"geometry":{"type":"Point","coordinates":[30.104,-1.897]}},{"type":"Feature","properties":{"id":"sdn","name":"Soudan","rank":3,"minzoom":2.5},"geometry":{"type":"Point","coordinates":[29.261,16.331]}},{"type":"Feature","properties":{"id":"sen","name":"Sénégal","rank":3,"minzoom":2.7},"geometry":{"type":"Point","coordinates":[-14.779,15.138]}},{"type":"Feature","properties":{"id":"slb","name":"Îles Salomon","rank":3,"minzoom":3},"geometry":{"type":"Point","coordinates":[159.17,-8.03]}},{"type":"Feature","properties":{"id":"ssd","name":"Soudan du Sud","rank":3,"minzoom":3},"geometry":{"type":"Point","coordinates":[30.39,7.23]}},{"type":"Feature","properties":{"id":"swe","name":"Suède","rank":3,"minzoom":2},"geometry":{"type":"Point","coordinates":[19.017,65.859]}},{"type":"Feature","properties":{"id":"syr","name":"Syrie","rank":3,"minzoom":3},"geometry":{"type":"Point","coordinates":[38.278,35.007]}},{"type":"Feature","properties":{"id":"tcd","name":"Tchad","rank":3,"minzoom":3},"geometry":{"type":"Point","coordinates":[18.645,15.143]}},{"type":"Feature","properties":{"id":"tha","name":"Thaïlande","rank":3,"minzoom":2.7},"geometry":{"type":"Point","coordinates":[101.073,15.46]}},{"type":"Feature","properties":{"id":"tun","name":"Tunisie","rank":3,"minzoom":3},"geometry":{"type":"Point","coordinates":[9.008,33.687]}},{"type":"Feature","properties":{"id":"twn","name":"Taïwan","rank":3,"minzoom":4.5},"geometry":{"type":"Point","coordinates":[120.868,23.652]}},{"type":"Feature","properties":{"id":"tza","name":"Tanzanie","rank":3,"minzoom":3},"geometry":{"type":"Point","coordinates":[34.959,-6.052]}},{"type":"Feature","properties":{"id":"uga","name":"Ouganda","rank":3,"minzoom":3},"geometry":{"type":"Point","coordinates":[32.949,1.973]}},{"type":"Feature","properties":{"id":"ukr","name":"Ukraine","rank":3,"minzoom":2.7},"geometry":{"type":"Point","coordinates":[32.141,49.725]}},{"type":"Feature","properties":{"id":"uzb","name":"Ouzbékistan","rank":3,"minzoom":3},"geometry":{"type":"Point","coordinates":[64.005,41.694]}},{"type":"Feature","properties":{"id":"ven","name":"Venezuela","rank":3,"minzoom":2.5},"geometry":{"type":"Point","coordinates":[-64.599,7.182]}},{"type":"Feature","properties":{"id":"yem","name":"Yémen","rank":3,"minzoom":3},"geometry":{"type":"Point","coordinates":[45.874,15.328]}},{"type":"Feature","properties":{"id":"zmb","name":"Zambie","rank":3,"minzoom":3},"geometry":{"type":"Point","coordinates":[26.395,-14.661]}},{"type":"Feature","properties":{"id":"zwe","name":"Zimbabwe","rank":3,"minzoom":2.5},"geometry":{"type":"Point","coordinates":[29.925,-18.912]}},{"type":"Feature","properties":{"id":"are","name":"Émirats arabes unis","rank":4,"minzoom":4},"geometry":{"type":"Point","coordinates":[54.547,23.466]}},{"type":"Feature","properties":{"id":"aut","name":"Autriche","rank":4,"minzoom":3},"geometry":{"type":"Point","coordinates":[14.131,47.519]}},{"type":"Feature","properties":{"id":"bgr","name":"Bulgarie","rank":4,"minzoom":4},"geometry":{"type":"Point","coordinates":[25.157,42.509]}},{"type":"Feature","properties":{"id":"bhr","name":"Bahreïn","rank":4,"minzoom":4},"geometry":{"type":"Point","coordinates":[50.555,26.056]}},{"type":"Feature","properties":{"id":"bhs","name":"Bahamas","rank":4,"minzoom":4},"geometry":{"type":"Point","coordinates":[-77.147,26.402]}},{"type":"Feature","properties":{"id":"blr","name":"Biélorussie","rank":4,"minzoom":3},"geometry":{"type":"Point","coordinates":[28.418,53.822]}},{"type":"Feature","properties":{"id":"bwa","name":"Botswana","rank":4,"minzoom":4},"geometry":{"type":"Point","coordinates":[24.179,-22.103]}},{"type":"Feature","properties":{"id":"caf","name":"Centrafrique","rank":4,"minzoom":4},"geometry":{"type":"Point","coordinates":[20.907,6.99]}},{"type":"Feature","properties":{"id":"che","name":"Suisse","rank":4,"minzoom":4},"geometry":{"type":"Point","coordinates":[7.464,46.719]}},{"type":"Feature","properties":{"id":"cog","name":"Congo","rank":4,"minzoom":4},"geometry":{"type":"Point","coordinates":[15.901,0.142]}},{"type":"Feature","properties":{"id":"cpv","name":"Cap-Vert","rank":4,"minzoom":4},"geometry":{"type":"Point","coordinates":[-23.639,15.075]}},{"type":"Feature","properties":{"id":"dnk","name":"Danemark","rank":4,"minzoom":3},"geometry":{"type":"Point","coordinates":[9.018,55.967]}},{"type":"Feature","properties":{"id":"eri","name":"Érythrée","rank":4,"minzoom":4},"geometry":{"type":"Point","coordinates":[38.286,15.787]}},{"type":"Feature","properties":{"id":"gab","name":"Gabon","rank":4,"minzoom":3},"geometry":{"type":"Point","coordinates":[11.836,-0.438]}},{"type":"Feature","properties":{"id":"gnq","name":"Guinée équatoriale","rank":4,"minzoom":4},"geometry":{"type":"Point","coordinates":[8.99,2.333]}},{"type":"Feature","properties":{"id":"guy","name":"Guyana","rank":4,"minzoom":4},"geometry":{"type":"Point","coordinates":[-58.943,5.124]}},{"type":"Feature","properties":{"id":"isr","name":"Israël","rank":4,"minzoom":3},"geometry":{"type":"Point","coordinates":[34.848,30.911]}},{"type":"Feature","properties":{"id":"jam","name":"Jamaïque","rank":4,"minzoom":4},"geometry":{"type":"Point","coordinates":[-77.319,18.137]}},{"type":"Feature","properties":{"id":"jor","name":"Jordanie","rank":4,"minzoom":4},"geometry":{"type":"Point","coordinates":[36.376,30.805]}},{"type":"Feature","properties":{"id":"kgz","name":"Kirghizistan","rank":4,"minzoom":3},"geometry":{"type":"Point","coordinates":[74.533,41.669]}},{"type":"Feature","properties":{"id":"lao","name":"Laos","rank":4,"minzoom":4},"geometry":{"type":"Point","coordinates":[102.534,19.432]}},{"type":"Feature","properties":{"id":"lbr","name":"Liberia","rank":4,"minzoom":4},"geometry":{"type":"Point","coordinates":[-9.46,6.447]}},{"type":"Feature","properties":{"id":"omn","name":"Oman","rank":4,"minzoom":4},"geometry":{"type":"Point","coordinates":[57.337,22.12]}},{"type":"Feature","properties":{"id":"pan","name":"Panama","rank":4,"minzoom":4},"geometry":{"type":"Point","coordinates":[-80.352,8.722]}},{"type":"Feature","properties":{"id":"pry","name":"Paraguay","rank":4,"minzoom":3},"geometry":{"type":"Point","coordinates":[-60.146,-21.675]}},{"type":"Feature","properties":{"id":"sle","name":"Sierra Leone","rank":4,"minzoom":4},"geometry":{"type":"Point","coordinates":[-11.764,8.617]}},{"type":"Feature","properties":{"id":"sur","name":"Suriname","rank":4,"minzoom":4},"geometry":{"type":"Point","coordinates":[-55.911,4.144]}},{"type":"Feature","properties":{"id":"swz","name":"Eswatini","rank":4,"minzoom":4},"geometry":{"type":"Point","coordinates":[31.467,-26.534]}},{"type":"Feature","properties":{"id":"tjk","name":"Tadjikistan","rank":4,"minzoom":4},"geometry":{"type":"Point","coordinates":[72.587,38.2]}},{"type":"Feature","properties":{"id":"tkm","name":"Turkménistan","rank":4,"minzoom":3},"geometry":{"type":"Point","coordinates":[58.677,39.855]}},{"type":"Feature","properties":{"id":"ton","name":"Tonga","rank":4,"minzoom":4},"geometry":{"type":"Point","coordinates":[-175.163,-21.21]}},{"type":"Feature","properties":{"id":"ury","name":"Uruguay","rank":4,"minzoom":3},"geometry":{"type":"Point","coordinates":[-55.967,-32.961]}},{"type":"Feature","properties":{"id":"vut","name":"Vanuatu","rank":4,"minzoom":4},"geometry":{"type":"Point","coordinates":[166.909,-15.372]}},{"type":"Feature","properties":{"id":"wsm","name":"Samoa","rank":4,"minzoom":3},"geometry":{"type":"Point","coordinates":[-172.438,-13.639]}},{"type":"Feature","properties":{"id":"aze","name":"Azerbaïdjan","rank":5,"minzoom":4},"geometry":{"type":"Point","coordinates":[47.211,40.402]}},{"type":"Feature","properties":{"id":"ben","name":"Bénin","rank":5,"minzoom":4},"geometry":{"type":"Point","coordinates":[2.352,10.325]}},{"type":"Feature","properties":{"id":"bih","name":"Bosnie-Herzégovine","rank":5,"minzoom":4.5},"geometry":{"type":"Point","coordinates":[18.068,44.091]}},{"type":"Feature","properties":{"id":"brb","name":"Barbade","rank":5,"minzoom":4.5},"geometry":{"type":"Point","coordinates":[-59.569,13.164]}},{"type":"Feature","properties":{"id":"btn","name":"Bhoutan","rank":5,"minzoom":4},"geometry":{"type":"Point","coordinates":[90.04,27.537]}},{"type":"Feature","properties":{"id":"cri","name":"Costa Rica","rank":5,"minzoom":2.5},"geometry":{"type":"Point","coordinates":[-84.078,10.065]}},{"type":"Feature","properties":{"id":"cyp","name":"Chypre","rank":5,"minzoom":4.5},"geometry":{"type":"Point","coordinates":[33.084,34.913]}},{"type":"Feature","properties":{"id":"cze","name":"Tchéquie","rank":5,"minzoom":4},"geometry":{"type":"Point","coordinates":[15.378,49.882]}},{"type":"Feature","properties":{"id":"dji","name":"Djibouti","rank":5,"minzoom":4},"geometry":{"type":"Point","coordinates":[42.499,11.976]}},{"type":"Feature","properties":{"id":"dom","name":"République dominicaine","rank":5,"minzoom":4.5},"geometry":{"type":"Point","coordinates":[-70.654,19.104]}},{"type":"Feature","properties":{"id":"geo","name":"Géorgie","rank":5,"minzoom":4},"geometry":{"type":"Point","coordinates":[43.736,41.87]}},{"type":"Feature","properties":{"id":"hnd","name":"Honduras","rank":5,"minzoom":4.5},"geometry":{"type":"Point","coordinates":[-86.888,14.795]}},{"type":"Feature","properties":{"id":"hti","name":"Haïti","rank":5,"minzoom":4},"geometry":{"type":"Point","coordinates":[-72.224,19.264]}},{"type":"Feature","properties":{"id":"hun","name":"Hongrie","rank":5,"minzoom":4},"geometry":{"type":"Point","coordinates":[19.448,47.087]}},{"type":"Feature","properties":{"id":"lbn","name":"Liban","rank":5,"minzoom":4},"geometry":{"type":"Point","coordinates":[35.993,34.133]}},{"type":"Feature","properties":{"id":"ltu","name":"Lituanie","rank":5,"minzoom":4},"geometry":{"type":"Point","coordinates":[24.09,55.104]}},{"type":"Feature","properties":{"id":"lva","name":"Lettonie","rank":5,"minzoom":4},"geometry":{"type":"Point","coordinates":[25.459,57.067]}},{"type":"Feature","properties":{"id":"mdv","name":"Maldives","rank":5,"minzoom":4},"geometry":{"type":"Point","coordinates":[73.508,4.174]}},{"type":"Feature","properties":{"id":"mlt","name":"Malte","rank":5,"minzoom":4},"geometry":{"type":"Point","coordinates":[14.433,35.893]}},{"type":"Feature","properties":{"id":"mus","name":"Maurice","rank":5,"minzoom":4},"geometry":{"type":"Point","coordinates":[57.566,-20.3]}},{"type":"Feature","properties":{"id":"nic","name":"Nicaragua","rank":5,"minzoom":4},"geometry":{"type":"Point","coordinates":[-85.069,12.671]}},{"type":"Feature","properties":{"id":"nld","name":"Pays-Bas","rank":5,"minzoom":4},"geometry":{"type":"Point","coordinates":[5.611,52.422]}},{"type":"Feature","properties":{"id":"qat","name":"Qatar","rank":5,"minzoom":4},"geometry":{"type":"Point","coordinates":[51.144,25.237]}},{"type":"Feature","properties":{"id":"sol","name":"Somaliland","rank":5,"minzoom":4.5},"geometry":{"type":"Point","coordinates":[46.732,9.444]}},{"type":"Feature","properties":{"id":"srb","name":"Serbie","rank":5,"minzoom":4},"geometry":{"type":"Point","coordinates":[20.788,44.19]}},{"type":"Feature","properties":{"id":"tls","name":"Timor oriental","rank":5,"minzoom":4},"geometry":{"type":"Point","coordinates":[125.855,-8.804]}},{"type":"Feature","properties":{"id":"tto","name":"Trinité-et-Tobago","rank":5,"minzoom":4.5},"geometry":{"type":"Point","coordinates":[-60.918,10.999]}},{"type":"Feature","properties":{"id":"alb","name":"Albanie","rank":6,"minzoom":5},"geometry":{"type":"Point","coordinates":[20.114,40.655]}},{"type":"Feature","properties":{"id":"and","name":"Andorre","rank":6,"minzoom":5},"geometry":{"type":"Point","coordinates":[1.539,42.548]}},{"type":"Feature","properties":{"id":"arm","name":"Arménie","rank":6,"minzoom":5},"geometry":{"type":"Point","coordinates":[44.801,40.459]}},{"type":"Feature","properties":{"id":"atg","name":"Antigua-et-Barbuda","rank":6,"minzoom":5},"geometry":{"type":"Point","coordinates":[-61.791,17.352]}},{"type":"Feature","properties":{"id":"bdi","name":"Burundi","rank":6,"minzoom":4},"geometry":{"type":"Point","coordinates":[29.917,-3.333]}},{"type":"Feature","properties":{"id":"blz","name":"Belize","rank":6,"minzoom":5},"geometry":{"type":"Point","coordinates":[-88.713,17.202]}},{"type":"Feature","properties":{"id":"brn","name":"Brunei","rank":6,"minzoom":4},"geometry":{"type":"Point","coordinates":[114.552,4.448]}},{"type":"Feature","properties":{"id":"com","name":"Comores","rank":6,"minzoom":4},"geometry":{"type":"Point","coordinates":[43.318,-11.728]}},{"type":"Feature","properties":{"id":"cyn","name":"Chypre du Nord","rank":6,"minzoom":6},"geometry":{"type":"Point","coordinates":[33.692,35.216]}},{"type":"Feature","properties":{"id":"dma","name":"Dominique","rank":6,"minzoom":4},"geometry":{"type":"Point","coordinates":[-61.345,15.459]}},{"type":"Feature","properties":{"id":"est","name":"Estonie","rank":6,"minzoom":3},"geometry":{"type":"Point","coordinates":[25.867,58.725]}},{"type":"Feature","properties":{"id":"fji","name":"Fidji","rank":6,"minzoom":3},"geometry":{"type":"Point","coordinates":[177.975,-17.826]}},{"type":"Feature","properties":{"id":"fsm","name":"Micronésie","rank":6,"minzoom":5},"geometry":{"type":"Point","coordinates":[158.234,6.888]}},{"type":"Feature","properties":{"id":"gaza","name":"Bande de Gaza","rank":6,"minzoom":6.5},"geometry":{"type":"Point","coordinates":[34.281,31.306]}},{"type":"Feature","properties":{"id":"gmb","name":"Gambie","rank":6,"minzoom":5},"geometry":{"type":"Point","coordinates":[-14.998,13.642]}},{"type":"Feature","properties":{"id":"gnb","name":"Guinée-Bissau","rank":6,"minzoom":5},"geometry":{"type":"Point","coordinates":[-14.524,12.164]}},{"type":"Feature","properties":{"id":"grd","name":"Grenade","rank":6,"minzoom":4},"geometry":{"type":"Point","coordinates":[-61.68,12.113]}},{"type":"Feature","properties":{"id":"hrv","name":"Croatie","rank":6,"minzoom":4},"geometry":{"type":"Point","coordinates":[16.372,45.806]}},{"type":"Feature","properties":{"id":"kir","name":"Kiribati","rank":6,"minzoom":5},"geometry":{"type":"Point","coordinates":[-157.385,1.82]}},{"type":"Feature","properties":{"id":"kna","name":"Saint-Christophe-et-Niévès","rank":6,"minzoom":5},"geometry":{"type":"Point","coordinates":[-62.758,17.337]}},{"type":"Feature","properties":{"id":"kwt","name":"Koweït","rank":6,"minzoom":5},"geometry":{"type":"Point","coordinates":[47.314,29.414]}},{"type":"Feature","properties":{"id":"lca","name":"Sainte-Lucie","rank":6,"minzoom":5},"geometry":{"type":"Point","coordinates":[-60.98,13.892]}},{"type":"Feature","properties":{"id":"lie","name":"Liechtenstein","rank":6,"minzoom":5},"geometry":{"type":"Point","coordinates":[9.559,47.111]}},{"type":"Feature","properties":{"id":"lso","name":"Lesotho","rank":6,"minzoom":4},"geometry":{"type":"Point","coordinates":[28.247,-29.48]}},{"type":"Feature","properties":{"id":"lux","name":"Luxembourg","rank":6,"minzoom":5.7},"geometry":{"type":"Point","coordinates":[6.078,49.734]}},{"type":"Feature","properties":{"id":"mco","name":"Monaco","rank":6,"minzoom":5},"geometry":{"type":"Point","coordinates":[7.398,43.74]}},{"type":"Feature","properties":{"id":"mda","name":"Moldavie","rank":6,"minzoom":5},"geometry":{"type":"Point","coordinates":[28.488,47.435]}},{"type":"Feature","properties":{"id":"mhl","name":"Îles Marshall","rank":6,"minzoom":5},"geometry":{"type":"Point","coordinates":[171.194,7.083]}},{"type":"Feature","properties":{"id":"mkd","name":"Macédoine du Nord","rank":6,"minzoom":5},"geometry":{"type":"Point","coordinates":[21.556,41.558]}},{"type":"Feature","properties":{"id":"mne","name":"Monténégro","rank":6,"minzoom":5},"geometry":{"type":"Point","coordinates":[19.144,42.803]}},{"type":"Feature","properties":{"id":"mwi","name":"Malawi","rank":6,"minzoom":4},"geometry":{"type":"Point","coordinates":[33.608,-13.387]}},{"type":"Feature","properties":{"id":"nru","name":"Nauru","rank":6,"minzoom":5},"geometry":{"type":"Point","coordinates":[166.933,-0.52]}},{"type":"Feature","properties":{"id":"plw","name":"Palaos","rank":6,"minzoom":5},"geometry":{"type":"Point","coordinates":[134.58,7.518]}},{"type":"Feature","properties":{"id":"pse","name":"Autorité palestinienne","rank":6,"minzoom":6.5},"geometry":{"type":"Point","coordinates":[35.284,32.225]}},{"type":"Feature","properties":{"id":"sgp","name":"Singapour","rank":6,"minzoom":4},"geometry":{"type":"Point","coordinates":[103.817,1.367]}},{"type":"Feature","properties":{"id":"slv","name":"Salvador","rank":6,"minzoom":5},"geometry":{"type":"Point","coordinates":[-88.89,13.685]}},{"type":"Feature","properties":{"id":"smr","name":"Saint-Marin","rank":6,"minzoom":5},"geometry":{"type":"Point","coordinates":[12.441,43.934]}},{"type":"Feature","properties":{"id":"som","name":"Somalie","rank":6,"minzoom":4},"geometry":{"type":"Point","coordinates":[45.192,3.569]}},{"type":"Feature","properties":{"id":"stp","name":"Sao Tomé-et-Principe","rank":6,"minzoom":5},"geometry":{"type":"Point","coordinates":[7.021,0.971]}},{"type":"Feature","properties":{"id":"svk","name":"Slovaquie","rank":6,"minzoom":4},"geometry":{"type":"Point","coordinates":[19.05,48.734]}},{"type":"Feature","properties":{"id":"svn","name":"Slovénie","rank":6,"minzoom":5},"geometry":{"type":"Point","coordinates":[14.915,46.061]}},{"type":"Feature","properties":{"id":"syc","name":"Seychelles","rank":6,"minzoom":5},"geometry":{"type":"Point","coordinates":[55.48,-4.677]}},{"type":"Feature","properties":{"id":"tgo","name":"Togo","rank":6,"minzoom":5},"geometry":{"type":"Point","coordinates":[1.058,8.807]}},{"type":"Feature","properties":{"id":"tuv","name":"Tuvalu","rank":6,"minzoom":5},"geometry":{"type":"Point","coordinates":[179.21,-8.514]}},{"type":"Feature","properties":{"id":"vat","name":"Vatican","rank":6,"minzoom":5},"geometry":{"type":"Point","coordinates":[12.453,41.903]}},{"type":"Feature","properties":{"id":"vct","name":"Saint-Vincent-et-les-Grenadines","rank":6,"minzoom":5},"geometry":{"type":"Point","coordinates":[-61.336,13.088]}},{"type":"Feature","properties":{"id":"xkx","name":"Kosovo","rank":6,"minzoom":5},"geometry":{"type":"Point","coordinates":[20.861,42.594]}},{"type":"Feature","properties":{"id":"esh","name":"Sahara occidental","rank":7,"minzoom":6},"geometry":{"type":"Point","coordinates":[-12.63,23.968]}}]}
