{"type":"FeatureCollection","features":[{"type":"Feature","properties":{"name":"Océan Arctique","name_en":"Arctic Ocean","kind":"ocean","rank":0,"minzoom":1},"geometry":{"type":"Point","coordinates":[-139.617,83.407]}},{"type":"Feature","properties":{"name":"Océan Indien","name_en":"Indian Ocean","kind":"ocean","rank":0,"minzoom":1},"geometry":{"type":"Point","coordinates":[84.854,-27.195]}},{"type":"Feature","properties":{"name":"Océan Atlantique","name_en":"Atlantic Ocean","kind":"ocean","rank":0,"minzoom":1},"geometry":{"type":"Point","coordinates":[-30.205,51.974]}},{"type":"Feature","properties":{"name":"Océan Pacifique","name_en":"Pacific Ocean","kind":"ocean","rank":0,"minzoom":1},"geometry":{"type":"Point","coordinates":[-145.777,37.507]}},{"type":"Feature","properties":{"name":"Océan Atlantique","name_en":"Atlantic Ocean","kind":"ocean","rank":0,"minzoom":1},"geometry":{"type":"Point","coordinates":[-14.061,-34.241]}},{"type":"Feature","properties":{"name":"Océan Pacifique","name_en":"Pacific Ocean","kind":"ocean","rank":0,"minzoom":1},"geometry":{"type":"Point","coordinates":[-113.559,-30.137]}},{"type":"Feature","properties":{"name":"Océan Austral","name_en":"Southern Ocean","kind":"ocean","rank":0,"minzoom":1},"geometry":{"type":"Point","coordinates":[-155.348,-66.236]}},{"type":"Feature","properties":{"name":"Mer d'Arabie","name_en":"Arabian Sea","kind":"sea","rank":1,"minzoom":2},"geometry":{"type":"Point","coordinates":[63.329,13.234]}},{"type":"Feature","properties":{"name":"Mer de Baffin","name_en":"Baffin Bay","kind":"bay","rank":1,"minzoom":2},"geometry":{"type":"Point","coordinates":[-64.611,72.776]}},{"type":"Feature","properties":{"name":"Golfe du Bengale","name_en":"Bay of Bengal","kind":"bay","rank":1,"minzoom":2},"geometry":{"type":"Point","coordinates":[86.404,12.454]}},{"type":"Feature","properties":{"name":"Mer de Beaufort","name_en":"Beaufort Sea","kind":"sea","rank":1,"minzoom":2},"geometry":{"type":"Point","coordinates":[-135.313,71.949]}},{"type":"Feature","properties":{"name":"Mer Noire","name_en":"Black Sea","kind":"sea","rank":1,"minzoom":2},"geometry":{"type":"Point","coordinates":[31.33,43.467]}},{"type":"Feature","properties":{"name":"Mer des Caraïbes","name_en":"Caribbean Sea","kind":"sea","rank":1,"minzoom":2},"geometry":{"type":"Point","coordinates":[-78.832,13.772]}},{"type":"Feature","properties":{"name":"Mer Caspienne","name_en":"Caspian Sea","kind":"sea","rank":1,"minzoom":2},"geometry":{"type":"Point","coordinates":[51.234,38.703]}},{"type":"Feature","properties":{"name":"Mer de Corail","name_en":"Coral Sea","kind":"sea","rank":1,"minzoom":2},"geometry":{"type":"Point","coordinates":[156.836,-18.541]}},{"type":"Feature","properties":{"name":"Golfe d'Alaska","name_en":"Gulf of Alaska","kind":"gulf","rank":1,"minzoom":2},"geometry":{"type":"Point","coordinates":[-148.497,58.112]}},{"type":"Feature","properties":{"name":"Golfe du Mexique","name_en":"Gulf of Mexico","kind":"gulf","rank":1,"minzoom":2},"geometry":{"type":"Point","coordinates":[-92.507,25.18]}},{"type":"Feature","properties":{"name":"Baie d'Hudson","name_en":"Hudson Bay","kind":"bay","rank":1,"minzoom":2},"geometry":{"type":"Point","coordinates":[-84.698,59.119]}},{"type":"Feature","properties":{"name":"Mer du Labrador","name_en":"Labrador Sea","kind":"sea","rank":1,"minzoom":2},"geometry":{"type":"Point","coordinates":[-52.668,56.72]}},{"type":"Feature","properties":{"name":"Mer Méditerranée","name_en":"Mediterranean Sea","kind":"sea","rank":1,"minzoom":2},"geometry":{"type":"Point","coordinates":[29.292,33.734]}},{"type":"Feature","properties":{"name":"Golfe Persique","name_en":"Persian Gulf","kind":"gulf","rank":1,"minzoom":2},"geometry":{"type":"Point","coordinates":[53.073,25.497]}},{"type":"Feature","properties":{"name":"Mer des Philippines","name_en":"Philippine Sea","kind":"sea","rank":1,"minzoom":2},"geometry":{"type":"Point","coordinates":[132.973,18.087]}},{"type":"Feature","properties":{"name":"Mer Rouge","name_en":"Red Sea","kind":"sea","rank":1,"minzoom":2},"geometry":{"type":"Point","coordinates":[40.442,17.319]}},{"type":"Feature","properties":{"name":"Mer de Ross","name_en":"Ross Sea","kind":"sea","rank":1,"minzoom":2},"geometry":{"type":"Point","coordinates":[-165.833,-74.748]}},{"type":"Feature","properties":{"name":"Mer du Japon","name_en":"Sea of Japan","kind":"sea","rank":1,"minzoom":2},"geometry":{"type":"Point","coordinates":[133.663,39.544]}},{"type":"Feature","properties":{"name":"Mer d'Okhotsk","name_en":"Sea of Okhotsk","kind":"sea","rank":1,"minzoom":2},"geometry":{"type":"Point","coordinates":[149.736,52.385]}},{"type":"Feature","properties":{"name":"Mer de Chine méridionale","name_en":"South China Sea","kind":"sea","rank":1,"minzoom":2},"geometry":{"type":"Point","coordinates":[114.739,13.948]}},{"type":"Feature","properties":{"name":"Mer de Tasman","name_en":"Tasman Sea","kind":"sea","rank":1,"minzoom":2},"geometry":{"type":"Point","coordinates":[159.698,-39.716]}},{"type":"Feature","properties":{"name":"Mer de Weddell","name_en":"Weddell Sea","kind":"sea","rank":1,"minzoom":2},"geometry":{"type":"Point","coordinates":[-42.428,-74.521]}},{"type":"Feature","properties":{"name":"Mer d'Amundsen","name_en":"Amundsen Sea","kind":"sea","rank":2,"minzoom":4},"geometry":{"type":"Point","coordinates":[-106.577,-74.159]}},{"type":"Feature","properties":{"name":"Mer d'Andaman","name_en":"Andaman Sea","kind":"sea","rank":2,"minzoom":4},"geometry":{"type":"Point","coordinates":[95.417,9.776]}},{"type":"Feature","properties":{"name":"Mer d'Arafura","name_en":"Arafura Sea","kind":"sea","rank":2,"minzoom":4},"geometry":{"type":"Point","coordinates":[135.192,-9.315]}},{"type":"Feature","properties":{"name":"Baie de Campêche","name_en":"Bay of Campeche","kind":"bay","rank":2,"minzoom":4},"geometry":{"type":"Point","coordinates":[-94.085,19.613]}},{"type":"Feature","properties":{"name":"Mer Baltique","name_en":"Baltic Sea","kind":"sea","rank":2,"minzoom":4},"geometry":{"type":"Point","coordinates":[18.975,55.892]}},{"type":"Feature","properties":{"name":"Mer de Banda","name_en":"Banda Sea","kind":"sea","rank":2,"minzoom":4},"geometry":{"type":"Point","coordinates":[128.298,-5.987]}},{"type":"Feature","properties":{"name":"Mer de Barents","name_en":"Barents Sea","kind":"sea","rank":2,"minzoom":4},"geometry":{"type":"Point","coordinates":[38.246,75.139]}},{"type":"Feature","properties":{"name":"Golfe de Gascogne","name_en":"Bay of Biscay","kind":"bay","rank":2,"minzoom":4},"geometry":{"type":"Point","coordinates":[-4.223,45.477]}},{"type":"Feature","properties":{"name":"Mer de Bellingshausen","name_en":"Bellingshausen Sea","kind":"sea","rank":2,"minzoom":4},"geometry":{"type":"Point","coordinates":[-80.401,-71.584]}},{"type":"Feature","properties":{"name":"Mer de Béring","name_en":"Bering Sea","kind":"sea","rank":2,"minzoom":4},"geometry":{"type":"Point","coordinates":[-172.722,56.513]}},{"type":"Feature","properties":{"name":"Mer de Célèbes","name_en":"Celebes Sea","kind":"sea","rank":2,"minzoom":4},"geometry":{"type":"Point","coordinates":[122.765,3.656]}},{"type":"Feature","properties":{"name":"Mer des Tchouktches","name_en":"Chukchi Sea","kind":"sea","rank":2,"minzoom":4},"geometry":{"type":"Point","coordinates":[-171.787,69.234]}},{"type":"Feature","properties":{"name":"Détroit de Davis","name_en":"Davis Strait","kind":"strait","rank":2,"minzoom":4},"geometry":{"type":"Point","coordinates":[-57.941,63.058]}},{"type":"Feature","properties":{"name":"Passage de Drake","name_en":"Drake Passage","kind":"channel","rank":2,"minzoom":4},"geometry":{"type":"Point","coordinates":[-63.993,-64.54]}},{"type":"Feature","properties":{"name":"Mer de Chine orientale","name_en":"East China Sea","kind":"sea","rank":2,"minzoom":4},"geometry":{"type":"Point","coordinates":[125.97,29.814]}},{"type":"Feature","properties":{"name":"Mer du Groenland","name_en":"Greenland Sea","kind":"sea","rank":2,"minzoom":4},"geometry":{"type":"Point","coordinates":[-3.104,77.409]}},{"type":"Feature","properties":{"name":"Golfe de Guinée","name_en":"Gulf of Guinea","kind":"gulf","rank":2,"minzoom":4},"geometry":{"type":"Point","coordinates":[4.639,2.834]}},{"type":"Feature","properties":{"name":"Golfe de Thaïlande","name_en":"Gulf of Thailand","kind":"gulf","rank":2,"minzoom":4},"geometry":{"type":"Point","coordinates":[102.229,8.987]}},{"type":"Feature","properties":{"name":"Mer d'Irlande","name_en":"Irish Sea","kind":"sea","rank":2,"minzoom":4},"geometry":{"type":"Point","coordinates":[-5.36,52.489]}},{"type":"Feature","properties":{"name":"Mer de Java","name_en":"Java Sea","kind":"sea","rank":2,"minzoom":4},"geometry":{"type":"Point","coordinates":[109.65,-4.848]}},{"type":"Feature","properties":{"name":"Mer de Kara","name_en":"Kara Sea","kind":"sea","rank":2,"minzoom":4},"geometry":{"type":"Point","coordinates":[77.074,77.294]}},{"type":"Feature","properties":{"name":"Mer des Laquedives","name_en":"Laccadive Sea","kind":"sea","rank":2,"minzoom":4},"geometry":{"type":"Point","coordinates":[75.353,5.723]}},{"type":"Feature","properties":{"name":"Mer de Laptev","name_en":"Laptev Sea","kind":"sea","rank":2,"minzoom":4},"geometry":{"type":"Point","coordinates":[122.588,75.817]}},{"type":"Feature","properties":{"name":"Détroit de Luçon","name_en":"Luzon Strait","kind":"strait","rank":2,"minzoom":4},"geometry":{"type":"Point","coordinates":[120.868,22.059]}},{"type":"Feature","properties":{"name":"Canal du Mozambique","name_en":"Mozambique Channel","kind":"channel","rank":2,"minzoom":4},"geometry":{"type":"Point","coordinates":[39.373,-21.279]}},{"type":"Feature","properties":{"name":"Mer du Nord","name_en":"North Sea","kind":"sea","rank":2,"minzoom":4},"geometry":{"type":"Point","coordinates":[3.266,56.105]}},{"type":"Feature","properties":{"name":"Mer de Norvège","name_en":"Norwegian Sea","kind":"sea","rank":2,"minzoom":4},"geometry":{"type":"Point","coordinates":[0.709,67.41]}},{"type":"Feature","properties":{"name":"Mer des Sargasses","name_en":"Sargasso Sea","kind":"sea","rank":2,"minzoom":4},"geometry":{"type":"Point","coordinates":[-58.404,27.602]}},{"type":"Feature","properties":{"name":"Mer de la Scotia","name_en":"Scotia Sea","kind":"sea","rank":2,"minzoom":4},"geometry":{"type":"Point","coordinates":[-54.807,-61.156]}},{"type":"Feature","properties":{"name":"Mer de Sulu","name_en":"Sulu Sea","kind":"sea","rank":2,"minzoom":4},"geometry":{"type":"Point","coordinates":[119.949,7.848]}},{"type":"Feature","properties":{"name":"Mer de Timor","name_en":"Timor Sea","kind":"sea","rank":2,"minzoom":4},"geometry":{"type":"Point","coordinates":[127.587,-11.161]}},{"type":"Feature","properties":{"name":"Mer Jaune","name_en":"Yellow Sea","kind":"sea","rank":2,"minzoom":4},"geometry":{"type":"Point","coordinates":[122.991,34.683]}},{"type":"Feature","properties":{"name":"Mer Adriatique","name_en":"Adriatic Sea","kind":"sea","rank":3,"minzoom":5},"geometry":{"type":"Point","coordinates":[17.399,41.936]}},{"type":"Feature","properties":{"name":"Manche","name_en":"English Channel","kind":"channel","rank":3,"minzoom":5},"geometry":{"type":"Point","coordinates":[-4.24,49.489]}},{"type":"Feature","properties":{"name":"Golfe de Californie","name_en":"Gulf of California","kind":"gulf","rank":3,"minzoom":5},"geometry":{"type":"Point","coordinates":[-108.945,24.378]}},{"type":"Feature","properties":{"name":"Grande baie australienne","name_en":"Great Australian Bight","kind":"gulf","rank":3,"minzoom":5},"geometry":{"type":"Point","coordinates":[130.241,-35.05]}},{"type":"Feature","properties":{"name":"Golfe d'Aden","name_en":"Gulf of Aden","kind":"gulf","rank":3,"minzoom":5},"geometry":{"type":"Point","coordinates":[49.531,12.888]}},{"type":"Feature","properties":{"name":"Golfe de Botnie","name_en":"Gulf of Bothnia","kind":"gulf","rank":3,"minzoom":5},"geometry":{"type":"Point","coordinates":[19.389,61.33]}},{"type":"Feature","properties":{"name":"Golfe de Carpentarie","name_en":"Gulf of Carpentaria","kind":"gulf","rank":3,"minzoom":5},"geometry":{"type":"Point","coordinates":[139.138,-14.334]}},{"type":"Feature","properties":{"name":"Golfe du Honduras","name_en":"Gulf of Honduras","kind":"gulf","rank":3,"minzoom":5},"geometry":{"type":"Point","coordinates":[-87.989,16.302]}},{"type":"Feature","properties":{"name":"Golfe d'Oman","name_en":"Gulf of Oman","kind":"gulf","rank":3,"minzoom":5},"geometry":{"type":"Point","coordinates":[59.584,24.314]}},{"type":"Feature","properties":{"name":"Détroit d'Hudson","name_en":"Hudson Strait","kind":"strait","rank":3,"minzoom":5},"geometry":{"type":"Point","coordinates":[-74.76,63.598]}},{"type":"Feature","properties":{"name":"Baie James","name_en":"James Bay","kind":"bay","rank":3,"minzoom":5},"geometry":{"type":"Point","coordinates":[-80.595,53.943]}},{"type":"Feature","properties":{"name":"Mer Tyrrhénienne","name_en":"Tyrrhenian Sea","kind":"sea","rank":3,"minzoom":5},"geometry":{"type":"Point","coordinates":[11.939,39.776]}},{"type":"Feature","properties":{"name":"Mer Blanche","name_en":"White Sea","kind":"sea","rank":3,"minzoom":5},"geometry":{"type":"Point","coordinates":[42.51,67.909]}},{"type":"Feature","properties":{"name":"Mer Égée","name_en":"Aegean Sea","kind":"sea","rank":4,"minzoom":5.7},"geometry":{"type":"Point","coordinates":[24.893,39.097]}},{"type":"Feature","properties":{"name":"Golfe d'Amundsen","name_en":"Amundsen Gulf","kind":"gulf","rank":4,"minzoom":5},"geometry":{"type":"Point","coordinates":[-120.656,70.578]}},{"type":"Feature","properties":{"name":"Mer des Baléares","name_en":"Balearic Sea","kind":"sea","rank":4,"minzoom":5.7},"geometry":{"type":"Point","coordinates":[1.901,40.392]}},{"type":"Feature","properties":{"name":"Baie de Fundy","name_en":"Bay of Fundy","kind":"bay","rank":4,"minzoom":5.7},"geometry":{"type":"Point","coordinates":[-66.465,44.741]}},{"type":"Feature","properties":{"name":"Baie de l'Abondance","name_en":"Bay of Plenty","kind":"bay","rank":4,"minzoom":5.7},"geometry":{"type":"Point","coordinates":[176.938,-37.534]}},{"type":"Feature","properties":{"name":"Mer de Bismarck","name_en":"Bismarck Sea","kind":"sea","rank":4,"minzoom":5.7},"geometry":{"type":"Point","coordinates":[148.082,-3.812]}},{"type":"Feature","properties":{"name":"Mer de Bohai","name_en":"Bohai Sea","kind":"sea","rank":4,"minzoom":5.7},"geometry":{"type":"Point","coordinates":[119.905,38.593]}},{"type":"Feature","properties":{"name":"Baie de Bristol","name_en":"Bristol Bay","kind":"bay","rank":4,"minzoom":5.7},"geometry":{"type":"Point","coordinates":[-160.068,57.654]}},{"type":"Feature","properties":{"name":"Canal de Bristol","name_en":"Bristol Channel","kind":"channel","rank":4,"minzoom":5.7},"geometry":{"type":"Point","coordinates":[-5.302,51.164]}},{"type":"Feature","properties":{"name":"Mer de Seram","name_en":"Ceram Sea","kind":"sea","rank":4,"minzoom":5.7},"geometry":{"type":"Point","coordinates":[131.149,-2.465]}},{"type":"Feature","properties":{"name":"Baie de Chesapeake","name_en":"Chesapeake Bay","kind":"bay","rank":4,"minzoom":5.7},"geometry":{"type":"Point","coordinates":[-76.018,37.832]}},{"type":"Feature","properties":{"name":"Golfe de Cook","name_en":"Tikahtnu Inlet","kind":"bay","rank":4,"minzoom":5.7},"geometry":{"type":"Point","coordinates":[-153.156,59.331]}},{"type":"Feature","properties":{"name":"Golfe du Lion","name_en":"Gulf of Lion","kind":"gulf","rank":4,"minzoom":5.7},"geometry":{"type":"Point","coordinates":[3.751,42.863]}},{"type":"Feature","properties":{"name":"Golfe de Panama","name_en":"Gulf of Panama","kind":"gulf","rank":4,"minzoom":5.7},"geometry":{"type":"Point","coordinates":[-79.155,8.204]}},{"type":"Feature","properties":{"name":"Golfe San Jorge","name_en":"San Jorge Gulf","kind":"gulf","rank":4,"minzoom":5.7},"geometry":{"type":"Point","coordinates":[-66.661,-46.157]}},{"type":"Feature","properties":{"name":"Golfe de Finlande","name_en":"Gulf of Finland","kind":"gulf","rank":4,"minzoom":5.7},"geometry":{"type":"Point","coordinates":[27.148,59.984]}},{"type":"Feature","properties":{"name":"Golfe de Kutch","name_en":"Gulf of Kutch","kind":"gulf","rank":4,"minzoom":5.7},"geometry":{"type":"Point","coordinates":[69.326,22.581]}},{"type":"Feature","properties":{"name":"Golfe du Maine","name_en":"Gulf of Maine","kind":"gulf","rank":4,"minzoom":5.7},"geometry":{"type":"Point","coordinates":[-69.397,42.953]}},{"type":"Feature","properties":{"name":"Golfe de Mannar","name_en":"Gulf of Mannar","kind":"gulf","rank":4,"minzoom":5.7},"geometry":{"type":"Point","coordinates":[78.953,8.435]}},{"type":"Feature","properties":{"name":"Golfe du Saint-Laurent","name_en":"Gulf of Saint Lawrence","kind":"gulf","rank":4,"minzoom":5.7},"geometry":{"type":"Point","coordinates":[-60.211,49.262]}},{"type":"Feature","properties":{"name":"Golfe du Tonkin","name_en":"Gulf of Tonkin","kind":"gulf","rank":4,"minzoom":5.7},"geometry":{"type":"Point","coordinates":[107.38,19.408]}},{"type":"Feature","properties":{"name":"Mers intérieures de la côte occidentale de l'Écosse","name_en":"Seto Inland Sea","kind":"sea","rank":4,"minzoom":5.7},"geometry":{"type":"Point","coordinates":[134.477,34.492]}},{"type":"Feature","properties":{"name":"Mer des Hébrides","name_en":"Sea of the Hebrides","kind":"sea","rank":4,"minzoom":5.7},"geometry":{"type":"Point","coordinates":[-7.048,56.122]}},{"type":"Feature","properties":{"name":"Mer Ionienne","name_en":"Ionian Sea","kind":"sea","rank":4,"minzoom":5.7},"geometry":{"type":"Point","coordinates":[18.523,38]}},{"type":"Feature","properties":{"name":"Détroit de Corée","name_en":"Korea Strait","kind":"strait","rank":4,"minzoom":5.7},"geometry":{"type":"Point","coordinates":[128.12,33.693]}},{"type":"Feature","properties":{"name":"Détroit de Macassar","name_en":"Makassar Strait","kind":"strait","rank":4,"minzoom":5.7},"geometry":{"type":"Point","coordinates":[117.565,-3.209]}},{"type":"Feature","properties":{"name":"Baie de Melville","name_en":"Melville Bay","kind":"bay","rank":4,"minzoom":5.7},"geometry":{"type":"Point","coordinates":[-60.661,75.445]}},{"type":"Feature","properties":{"name":"Mer des Moluques","name_en":"Molucca Sea","kind":"sea","rank":4,"minzoom":5.7},"geometry":{"type":"Point","coordinates":[125.656,-0.337]}},{"type":"Feature","properties":{"name":"Río de la Plata","name_en":"Río de la Plata","kind":"gulf","rank":4,"minzoom":5.7},"geometry":{"type":"Point","coordinates":[-56.499,-35.407]}},{"type":"Feature","properties":{"name":"Golfe de Chelikhov","name_en":"Shelikhov Gulf","kind":"gulf","rank":4,"minzoom":5.7},"geometry":{"type":"Point","coordinates":[157.622,59.8]}},{"type":"Feature","properties":{"name":"Mer des Salomon","name_en":"Solomon Sea","kind":"sea","rank":4,"minzoom":5.7},"geometry":{"type":"Point","coordinates":[155.129,-9.435]}},{"type":"Feature","properties":{"name":"Détroit de Gibraltar","name_en":"Strait of Gibraltar","kind":"strait","rank":4,"minzoom":5.7},"geometry":{"type":"Point","coordinates":[-5.919,35.783]}},{"type":"Feature","properties":{"name":"Détroit de Malacca","name_en":"Strait of Malacca","kind":"strait","rank":4,"minzoom":5.7},"geometry":{"type":"Point","coordinates":[98.493,6.202]}},{"type":"Feature","properties":{"name":"Détroit de Singapour","name_en":"Singapore Strait","kind":"strait","rank":4,"minzoom":5.7},"geometry":{"type":"Point","coordinates":[103.584,1.199]}},{"type":"Feature","properties":{"name":"Détroit de Floride","name_en":"Florida Strait","kind":"strait","rank":4,"minzoom":5.7},"geometry":{"type":"Point","coordinates":[-79.296,25.561]}},{"type":"Feature","properties":{"name":"Détroit de Taïwan","name_en":"Taiwan Strait","kind":"strait","rank":4,"minzoom":5.7},"geometry":{"type":"Point","coordinates":[119.372,24.117]}},{"type":"Feature","properties":{"name":"Passage du Nord-Ouest","name_en":"Northwest Passage","kind":"channel","rank":4,"minzoom":5},"geometry":{"type":"Point","coordinates":[-102.163,74.48]}},{"type":"Feature","properties":{"name":"Baie d'Ungava","name_en":"Ungava Bay","kind":"bay","rank":4,"minzoom":5.7},"geometry":{"type":"Point","coordinates":[-67.361,59.494]}},{"type":"Feature","properties":{"name":"Détroit du Vicomte Melville","name_en":"Viscount Melville Sound","kind":"sound","rank":4,"minzoom":5},"geometry":{"type":"Point","coordinates":[-110.375,73.8]}},{"type":"Feature","properties":{"name":"Bahía Blanca","name_en":"Bahía Blanca","kind":"bay","rank":5,"minzoom":6},"geometry":{"type":"Point","coordinates":[-61.992,-39.138]}},{"type":"Feature","properties":{"name":"Bahía Grande","name_en":"Bahía Grande","kind":"bay","rank":5,"minzoom":6},"geometry":{"type":"Point","coordinates":[-68.621,-50.83]}},{"type":"Feature","properties":{"name":"Baie de Maputo","name_en":"Maputo Bay","kind":"bay","rank":5,"minzoom":6},"geometry":{"type":"Point","coordinates":[32.8,-25.626]}},{"type":"Feature","properties":{"name":"Détroit de Bass","name_en":"Bass Strait","kind":"strait","rank":5,"minzoom":6},"geometry":{"type":"Point","coordinates":[145.411,-39.794]}},{"type":"Feature","properties":{"name":"Golfe du Bénin","name_en":"Bight of Benin","kind":"bay","rank":5,"minzoom":6},"geometry":{"type":"Point","coordinates":[4.161,5.709]}},{"type":"Feature","properties":{"name":"Golfe du Biafra","name_en":"Bight of Biafra","kind":"bay","rank":5,"minzoom":6},"geometry":{"type":"Point","coordinates":[8.274,4.05]}},{"type":"Feature","properties":{"name":"Boca Grande","name_en":"Boca Grande","kind":"bay","rank":5,"minzoom":6},"geometry":{"type":"Point","coordinates":[-60.819,8.871]}},{"type":"Feature","properties":{"name":"Boknafjord","name_en":"Boknafjord","kind":"fjord","rank":5,"minzoom":6},"geometry":{"type":"Point","coordinates":[5.699,59.169]}},{"type":"Feature","properties":{"name":"Bosphore","name_en":"Bosporus","kind":"strait","rank":5,"minzoom":6},"geometry":{"type":"Point","coordinates":[29.015,41.032]}},{"type":"Feature","properties":{"name":"Détroit de Bransfield","name_en":"Bransfield Strait","kind":"strait","rank":5,"minzoom":5.7},"geometry":{"type":"Point","coordinates":[-56.151,-62.334]}},{"type":"Feature","properties":{"name":"Baie Cumberland","name_en":"Cumberland Sound","kind":"sound","rank":5,"minzoom":5.7},"geometry":{"type":"Point","coordinates":[-66.105,65.379]}},{"type":"Feature","properties":{"name":"Mer de Davis","name_en":"Davis Sea","kind":"sea","rank":5,"minzoom":5.7},"geometry":{"type":"Point","coordinates":[95.135,-64.712]}},{"type":"Feature","properties":{"name":"Baie de Disko","name_en":"Disko Bay","kind":"bay","rank":5,"minzoom":6},"geometry":{"type":"Point","coordinates":[-52.173,69.063]}},{"type":"Feature","properties":{"name":"Entrée Dixon","name_en":"Dixon Entrance","kind":"channel","rank":5,"minzoom":6},"geometry":{"type":"Point","coordinates":[-132.396,54.402]}},{"type":"Feature","properties":{"name":"Baie de Corée orientale","name_en":"East Korea Bay","kind":"bay","rank":5,"minzoom":6},"geometry":{"type":"Point","coordinates":[127.924,39.371]}},{"type":"Feature","properties":{"name":"Mer de Sibérie orientale","name_en":"East Siberian Sea","kind":"sea","rank":5,"minzoom":5},"geometry":{"type":"Point","coordinates":[157.986,73.602]}},{"type":"Feature","properties":{"name":"Bassin de Foxe","name_en":"Foxe Basin","kind":"bay","rank":5,"minzoom":5.7},"geometry":{"type":"Point","coordinates":[-80.214,65.863]}},{"type":"Feature","properties":{"name":"Baie de Frobisher","name_en":"Frobisher Bay","kind":"bay","rank":5,"minzoom":6},"geometry":{"type":"Point","coordinates":[-66.164,62.715]}},{"type":"Feature","properties":{"name":"Baie du Géographe","name_en":"Geographe Bay","kind":"bay","rank":5,"minzoom":6},"geometry":{"type":"Point","coordinates":[115.377,-31.976]}},{"type":"Feature","properties":{"name":"Golfe de Corcovado","name_en":"Gulf of Corcovado","kind":"gulf","rank":5,"minzoom":6},"geometry":{"type":"Point","coordinates":[-73.443,-43.637]}},{"type":"Feature","properties":{"name":"Golfe de Guayaquil","name_en":"Gulf of Guayaquil","kind":"gulf","rank":5,"minzoom":6},"geometry":{"type":"Point","coordinates":[-80.546,-3.151]}},{"type":"Feature","properties":{"name":"Golfe de Penas","name_en":"Gulf of Penas","kind":"gulf","rank":5,"minzoom":6},"geometry":{"type":"Point","coordinates":[-74.891,-47.193]}},{"type":"Feature","properties":{"name":"Golfe de Tehuantepec","name_en":"Gulf of Tehuantepec","kind":"gulf","rank":5,"minzoom":6},"geometry":{"type":"Point","coordinates":[-94.563,15.846]}},{"type":"Feature","properties":{"name":"Golfe San Matías","name_en":"San Matías Gulf","kind":"gulf","rank":5,"minzoom":6},"geometry":{"type":"Point","coordinates":[-64.303,-41.546]}},{"type":"Feature","properties":{"name":"Golfe de Boothia","name_en":"Gulf of Boothia","kind":"gulf","rank":5,"minzoom":5.7},"geometry":{"type":"Point","coordinates":[-87.143,69.39]}},{"type":"Feature","properties":{"name":"Golfe de Gabès","name_en":"Gulf of Gabès","kind":"gulf","rank":5,"minzoom":6},"geometry":{"type":"Point","coordinates":[10.612,34.193]}},{"type":"Feature","properties":{"name":"Baie du Kamtchatka","name_en":"Kamchatka Gulf","kind":"gulf","rank":5,"minzoom":6},"geometry":{"type":"Point","coordinates":[162.458,55.899]}},{"type":"Feature","properties":{"name":"Golfe de Cambay","name_en":"Gulf of Khambhat","kind":"gulf","rank":5,"minzoom":6},"geometry":{"type":"Point","coordinates":[72.278,20.652]}},{"type":"Feature","properties":{"name":"Golfe de Martaban","name_en":"Gulf of Martaban","kind":"gulf","rank":5,"minzoom":6},"geometry":{"type":"Point","coordinates":[96.908,15.979]}},{"type":"Feature","properties":{"name":"Golfe de Masira","name_en":"Gulf of Masirah","kind":"gulf","rank":5,"minzoom":6},"geometry":{"type":"Point","coordinates":[58.174,20.098]}},{"type":"Feature","properties":{"name":"Olenekskiy Zaliv","name_en":"Olenyok Gulf","kind":"gulf","rank":5,"minzoom":6},"geometry":{"type":"Point","coordinates":[121.95,73.247]}},{"type":"Feature","properties":{"name":"Golfe de Papouasie","name_en":"Gulf of Papua","kind":"gulf","rank":5,"minzoom":6},"geometry":{"type":"Point","coordinates":[144.562,-8.309]}},{"type":"Feature","properties":{"name":"Golfe de Riga","name_en":"Gulf of Riga","kind":"gulf","rank":5,"minzoom":6},"geometry":{"type":"Point","coordinates":[23.414,57.911]}},{"type":"Feature","properties":{"name":"Golfe de Sakhaline","name_en":"Sakhalin Gulf","kind":"gulf","rank":5,"minzoom":6},"geometry":{"type":"Point","coordinates":[141.526,53.83]}},{"type":"Feature","properties":{"name":"Golfe de Syrte","name_en":"Gulf of Sidra","kind":"gulf","rank":5,"minzoom":6},"geometry":{"type":"Point","coordinates":[19.072,31.221]}},{"type":"Feature","properties":{"name":"Golfe de Iana","name_en":"Yana Bay","kind":"gulf","rank":5,"minzoom":5.7},"geometry":{"type":"Point","coordinates":[136.468,72.39]}},{"type":"Feature","properties":{"name":"Golfe Saint-Vincent","name_en":"Gulf St Vincent","kind":"gulf","rank":5,"minzoom":6},"geometry":{"type":"Point","coordinates":[136.849,-34.428]}},{"type":"Feature","properties":{"name":"Baie de Hangzhou","name_en":"Hangzhouwan","kind":"bay","rank":5,"minzoom":6},"geometry":{"type":"Point","coordinates":[121.581,30.506]}},{"type":"Feature","properties":{"name":"Golfe Joseph Bonaparte","name_en":"Joseph Bonaparte Gulf","kind":"gulf","rank":5,"minzoom":6},"geometry":{"type":"Point","coordinates":[128.816,-14.245]}},{"type":"Feature","properties":{"name":"Bassin Kane","name_en":"Kane Basin","kind":"bay","rank":5,"minzoom":5.7},"geometry":{"type":"Point","coordinates":[-68.416,79.624]}},{"type":"Feature","properties":{"name":"Scoresby Sund","name_en":"Scoresby Sound","kind":"fjord","rank":5,"minzoom":6},"geometry":{"type":"Point","coordinates":[-24.698,70.552]}},{"type":"Feature","properties":{"name":"Golfe Karaguinski","name_en":"Karaginsky Gulf","kind":"gulf","rank":5,"minzoom":6},"geometry":{"type":"Point","coordinates":[164.023,59.516]}},{"type":"Feature","properties":{"name":"Cattégat","name_en":"Kattegat","kind":"sea","rank":5,"minzoom":6},"geometry":{"type":"Point","coordinates":[11.328,56.967]}},{"type":"Feature","properties":{"name":"Golfe de Kotzebue","name_en":"Kotzebue Sound","kind":"sound","rank":5,"minzoom":6},"geometry":{"type":"Point","coordinates":[-162.846,66.435]}},{"type":"Feature","properties":{"name":"Baie Kronotski","name_en":"Kronotsky Gulf","kind":"gulf","rank":5,"minzoom":6},"geometry":{"type":"Point","coordinates":[160.422,53.991]}},{"type":"Feature","properties":{"name":"Détroit de La Pérouse","name_en":"La Pérouse Strait","kind":"strait","rank":5,"minzoom":6},"geometry":{"type":"Point","coordinates":[141.861,45.45]}},{"type":"Feature","properties":{"name":"Mer Ligure","name_en":"Ligurian Sea","kind":"sea","rank":5,"minzoom":6},"geometry":{"type":"Point","coordinates":[8.954,43.856]}},{"type":"Feature","properties":{"name":"Mer de Lincoln","name_en":"Lincoln Sea","kind":"sea","rank":5,"minzoom":5},"geometry":{"type":"Point","coordinates":[-57.414,82.748]}},{"type":"Feature","properties":{"name":"Baie de Lützow-Holm","name_en":"Lützow-Holm Bay","kind":"bay","rank":5,"minzoom":6},"geometry":{"type":"Point","coordinates":[38.285,-69.242]}},{"type":"Feature","properties":{"name":"Détroit de McClure","name_en":"M'Clure Strait","kind":"strait","rank":5,"minzoom":5.7},"geometry":{"type":"Point","coordinates":[-120.907,75.135]}},{"type":"Feature","properties":{"name":"Baie Mackenzie","name_en":"Mackenzie Bay","kind":"bay","rank":5,"minzoom":6},"geometry":{"type":"Point","coordinates":[-136.779,69.286]}},{"type":"Feature","properties":{"name":"Baie de Marguerite","name_en":"Marguerite Bay","kind":"bay","rank":5,"minzoom":5.7},"geometry":{"type":"Point","coordinates":[-68.554,-68.495]}},{"type":"Feature","properties":{"name":"Détroit de McMurdo","name_en":"McMurdo Sound","kind":"sound","rank":5,"minzoom":5.7},"geometry":{"type":"Point","coordinates":[166.075,-75.528]}},{"type":"Feature","properties":{"name":"Norton Sound","name_en":"Norton Sound","kind":"sound","rank":5,"minzoom":6},"geometry":{"type":"Point","coordinates":[-163.374,63.854]}},{"type":"Feature","properties":{"name":"Porpoise Bay","name_en":"Porpoise Bay","kind":"bay","rank":5,"minzoom":6},"geometry":{"type":"Point","coordinates":[128.524,-66.714]}},{"type":"Feature","properties":{"name":"Baie de Prydz","name_en":"Prydz Bay","kind":"bay","rank":5,"minzoom":5.7},"geometry":{"type":"Point","coordinates":[72.639,-68.878]}},{"type":"Feature","properties":{"name":"Ronne Entrance","name_en":"Ronne Entrance","kind":"channel","rank":5,"minzoom":6},"geometry":{"type":"Point","coordinates":[-74.723,-72.332]}},{"type":"Feature","properties":{"name":"Mer d'Azov","name_en":"Sea of Azov","kind":"sea","rank":5,"minzoom":6},"geometry":{"type":"Point","coordinates":[36.669,46.065]}},{"type":"Feature","properties":{"name":"Mer de Crète","name_en":"Sea of Crete","kind":"sea","rank":5,"minzoom":6},"geometry":{"type":"Point","coordinates":[24.096,36.349]}},{"type":"Feature","properties":{"name":"Baie Shark","name_en":"Shark Bay","kind":"bay","rank":5,"minzoom":6},"geometry":{"type":"Point","coordinates":[113.651,-25.425]}},{"type":"Feature","properties":{"name":"Skagerrak","name_en":"Skagerrak","kind":"fjord","rank":5,"minzoom":6},"geometry":{"type":"Point","coordinates":[9.744,58.16]}},{"type":"Feature","properties":{"name":"Baie de Sainte-Hélène","name_en":"St. Helena Bay","kind":"bay","rank":5,"minzoom":6},"geometry":{"type":"Point","coordinates":[18.329,-32.507]}},{"type":"Feature","properties":{"name":"Storfjorden","name_en":"Storfjorden","kind":"fjord","rank":5,"minzoom":6},"geometry":{"type":"Point","coordinates":[19.881,77.826]}},{"type":"Feature","properties":{"name":"Baie de Sulzberger","name_en":"Sulzberger Bay","kind":"bay","rank":5,"minzoom":6},"geometry":{"type":"Point","coordinates":[-152.586,-76.968]}},{"type":"Feature","properties":{"name":"Détroit de Torrès","name_en":"Torres Strait","kind":"strait","rank":5,"minzoom":6},"geometry":{"type":"Point","coordinates":[142.302,-9.899]}},{"type":"Feature","properties":{"name":"Baie d'Uchiura","name_en":"Uchiura Bay","kind":"bay","rank":5,"minzoom":6},"geometry":{"type":"Point","coordinates":[142.067,41.782]}},{"type":"Feature","properties":{"name":"Baie d'Uda","name_en":"Uda Gulf","kind":"bay","rank":5,"minzoom":6},"geometry":{"type":"Point","coordinates":[137.524,55.566]}},{"type":"Feature","properties":{"name":"Vestfjord","name_en":"Vestfjorden","kind":"fjord","rank":5,"minzoom":6},"geometry":{"type":"Point","coordinates":[13.831,67.683]}},{"type":"Feature","properties":{"name":"Détroit de Vil'kitskogo","name_en":"Vilkitsky Strait","kind":"strait","rank":5,"minzoom":5.7},"geometry":{"type":"Point","coordinates":[101.789,77.826]}},{"type":"Feature","properties":{"name":"Baie de Vincennes","name_en":"Vincennes Bay","kind":"bay","rank":5,"minzoom":6},"geometry":{"type":"Point","coordinates":[109.261,-66.47]}},{"type":"Feature","properties":{"name":"Golfe de Wrigley","name_en":"Wrigley Gulf","kind":"gulf","rank":5,"minzoom":6},"geometry":{"type":"Point","coordinates":[-129.61,-74.231]}},{"type":"Feature","properties":{"name":"Canal du Yucatán","name_en":"Yucatán Channel","kind":"channel","rank":5,"minzoom":6},"geometry":{"type":"Point","coordinates":[-86.995,21.544]}},{"type":"Feature","properties":{"name":"Baie de Tchaoun","name_en":"Chaunskaya Bay","kind":"bay","rank":6,"minzoom":7},"geometry":{"type":"Point","coordinates":[169.813,69.338]}},{"type":"Feature","properties":{"name":"Détroit de Danemark","name_en":"Denmark Strait","kind":"strait","rank":6,"minzoom":7},"geometry":{"type":"Point","coordinates":[-25.082,66.132]}},{"type":"Feature","properties":{"name":"Détroit de Magellan","name_en":"Strait of Magellan","kind":"strait","rank":6,"minzoom":7},"geometry":{"type":"Point","coordinates":[-69.059,-52.449]}},{"type":"Feature","properties":{"name":"Kara-Bogaz-Gol","name_en":"Garabogazköl","kind":"bay","rank":6,"minzoom":7},"geometry":{"type":"Point","coordinates":[53.497,41.323]}},{"type":"Feature","properties":{"name":"Golfe d'Anadyr","name_en":"Gulf of Anadyr","kind":"gulf","rank":6,"minzoom":5.7},"geometry":{"type":"Point","coordinates":[-177.531,64.213]}},{"type":"Feature","properties":{"name":"Golfe de l'Ob","name_en":"Gulf of Ob","kind":"gulf","rank":6,"minzoom":7},"geometry":{"type":"Point","coordinates":[73.929,72.356]}},{"type":"Feature","properties":{"name":"Golfe de Suez","name_en":"Gulf of Suez","kind":"gulf","rank":6,"minzoom":7},"geometry":{"type":"Point","coordinates":[33.82,27.694]}},{"type":"Feature","properties":{"name":"Détroit de Jones","name_en":"Jones Sound","kind":"sound","rank":6,"minzoom":7},"geometry":{"type":"Point","coordinates":[-86.284,75.96]}},{"type":"Feature","properties":{"name":"Golfe de Khatanga","name_en":"Khatanga Gulf","kind":"gulf","rank":6,"minzoom":7},"geometry":{"type":"Point","coordinates":[110.825,74.249]}},{"type":"Feature","properties":{"name":"Lac Maracaibo","name_en":"Lake Maracaibo","kind":"lagoon","rank":6,"minzoom":7},"geometry":{"type":"Point","coordinates":[-71.564,9.755]}},{"type":"Feature","properties":{"name":"Fleuve Saint-Laurent","name_en":"Saint Lawrence River","kind":"channel","rank":6,"minzoom":7},"geometry":{"type":"Point","coordinates":[-65.316,49.783]}},{"type":"Feature","properties":{"name":"Mer des Salish","name_en":"Salish Sea","kind":"sea","rank":6,"minzoom":6},"geometry":{"type":"Point","coordinates":[-122.976,48.628]}},{"type":"Feature","properties":{"name":"Mer de Marmara","name_en":"Sea of Marmara","kind":"sea","rank":6,"minzoom":7},"geometry":{"type":"Point","coordinates":[28.283,40.733]}},{"type":"Feature","properties":{"name":"Golfe de l'Ienisseï","name_en":"Yenisei Gulf","kind":"gulf","rank":6,"minzoom":7},"geometry":{"type":"Point","coordinates":[80.013,72.537]}},{"type":"Feature","properties":{"name":"Baie d'Albemarle","name_en":"Albemarle Sound","kind":"sound","rank":7,"minzoom":7.6},"geometry":{"type":"Point","coordinates":[-76.01,36.089]}},{"type":"Feature","properties":{"name":"Mer d'Alboran","name_en":"Alboran Sea","kind":"sea","rank":7,"minzoom":7.6},"geometry":{"type":"Point","coordinates":[-3.991,35.992]}},{"type":"Feature","properties":{"name":"Baie d'Antongil","name_en":"Antongil Bay","kind":"bay","rank":7,"minzoom":7.6},"geometry":{"type":"Point","coordinates":[49.899,-15.948]}},{"type":"Feature","properties":{"name":"Bab-el-Mandeb","name_en":"Bab-el-Mandeb","kind":"strait","rank":7,"minzoom":7.6},"geometry":{"type":"Point","coordinates":[43.471,12.853]}},{"type":"Feature","properties":{"name":"Baía de Marajó","name_en":"Marajó Bay","kind":"bay","rank":7,"minzoom":7.6},"geometry":{"type":"Point","coordinates":[-48.312,-0.681]}},{"type":"Feature","properties":{"name":"Baía de São Marcos","name_en":"Baía de São Marcos","kind":"bay","rank":7,"minzoom":7.6},"geometry":{"type":"Point","coordinates":[-43.938,-2.387]}},{"type":"Feature","properties":{"name":"Mer de Bali","name_en":"Bali Sea","kind":"sea","rank":7,"minzoom":7.6},"geometry":{"type":"Point","coordinates":[115.948,-7.674]}},{"type":"Feature","properties":{"name":"Mer de Bohol","name_en":"Bohol Sea","kind":"sea","rank":7,"minzoom":7.6},"geometry":{"type":"Point","coordinates":[124.055,9.044]}},{"type":"Feature","properties":{"name":"Détroit de Cook","name_en":"Cook Strait","kind":"strait","rank":7,"minzoom":7.6},"geometry":{"type":"Point","coordinates":[174.451,-41.487]}},{"type":"Feature","properties":{"name":"Détroit des Dardanelles","name_en":"Dardanelles","kind":"channel","rank":7,"minzoom":7.6},"geometry":{"type":"Point","coordinates":[26.267,40.054]}},{"type":"Feature","properties":{"name":"Darnley Bay","name_en":"Darnley Bay","kind":"bay","rank":7,"minzoom":7.6},"geometry":{"type":"Point","coordinates":[-123.813,69.535]}},{"type":"Feature","properties":{"name":"Golfe de Davao","name_en":"Davao Gulf","kind":"gulf","rank":7,"minzoom":7.6},"geometry":{"type":"Point","coordinates":[125.736,6.762]}},{"type":"Feature","properties":{"name":"Baie du Delaware","name_en":"Delaware Bay","kind":"bay","rank":7,"minzoom":7.6},"geometry":{"type":"Point","coordinates":[-75.132,39.051]}},{"type":"Feature","properties":{"name":"Détroit de Dmitri-Laptev","name_en":"Dmitry Laptev Strait","kind":"strait","rank":7,"minzoom":7.6},"geometry":{"type":"Point","coordinates":[142.532,72.982]}},{"type":"Feature","properties":{"name":"Eclipse Sound","name_en":"Eclipse Sound","kind":"sound","rank":7,"minzoom":7.6},"geometry":{"type":"Point","coordinates":[-79.102,72.575]}},{"type":"Feature","properties":{"name":"Mer de Florès","name_en":"Flores Sea","kind":"sea","rank":7,"minzoom":7.6},"geometry":{"type":"Point","coordinates":[119.546,-7.358]}},{"type":"Feature","properties":{"name":"Baie Lady Franklin","name_en":"Franklin Bay","kind":"bay","rank":7,"minzoom":7.6},"geometry":{"type":"Point","coordinates":[-125.427,69.465]}},{"type":"Feature","properties":{"name":"Détroit de Fury and Hecla","name_en":"Fury and Hecla Strait","kind":"strait","rank":7,"minzoom":7.6},"geometry":{"type":"Point","coordinates":[-83.182,69.844]}},{"type":"Feature","properties":{"name":"Détroit de George VI","name_en":"George VI Sound","kind":"sound","rank":7,"minzoom":7.6},"geometry":{"type":"Point","coordinates":[-72.409,-73.036]}},{"type":"Feature","properties":{"name":"Golfe d'Urabá","name_en":"Gulf of Urabá","kind":"gulf","rank":7,"minzoom":7.6},"geometry":{"type":"Point","coordinates":[-76.939,8.394]}},{"type":"Feature","properties":{"name":"Golfe d'Aqaba","name_en":"Gulf of Aqaba","kind":"gulf","rank":7,"minzoom":7.6},"geometry":{"type":"Point","coordinates":[34.574,28.334]}},{"type":"Feature","properties":{"name":"Golfe de Buli","name_en":"Buli Bay","kind":"gulf","rank":7,"minzoom":7.6},"geometry":{"type":"Point","coordinates":[129.001,0.769]}},{"type":"Feature","properties":{"name":"Golfe de Tomini","name_en":"Gulf of Tomini","kind":"gulf","rank":7,"minzoom":7.6},"geometry":{"type":"Point","coordinates":[120.911,-0.341]}},{"type":"Feature","properties":{"name":"Hadley Bay","name_en":"Hadley Bay","kind":"bay","rank":7,"minzoom":7.6},"geometry":{"type":"Point","coordinates":[-107.821,71.891]}},{"type":"Feature","properties":{"name":"Bassin Hall","name_en":"Hall Basin","kind":"gulf","rank":7,"minzoom":7.6},"geometry":{"type":"Point","coordinates":[-62.99,81.56]}},{"type":"Feature","properties":{"name":"Mer d'Halmahera","name_en":"Halmahera Sea","kind":"sea","rank":7,"minzoom":7.6},"geometry":{"type":"Point","coordinates":[128.996,-0.551]}},{"type":"Feature","properties":{"name":"Hamilton Inlet","name_en":"Hamilton Inlet","kind":"bay","rank":7,"minzoom":7.6},"geometry":{"type":"Point","coordinates":[-59.721,53.682]}},{"type":"Feature","properties":{"name":"Détroit d'Hecate","name_en":"Hecate Strait","kind":"strait","rank":7,"minzoom":7.6},"geometry":{"type":"Point","coordinates":[-130.899,53.139]}},{"type":"Feature","properties":{"name":"Kara Strait","name_en":"Kara Strait","kind":"strait","rank":7,"minzoom":7.6},"geometry":{"type":"Point","coordinates":[57.575,70.743]}},{"type":"Feature","properties":{"name":"Passage Kennedy","name_en":"Kennedy Channel","kind":"channel","rank":7,"minzoom":7.6},"geometry":{"type":"Point","coordinates":[-66.523,80.807]}},{"type":"Feature","properties":{"name":"Lagoa dos Patos","name_en":"Patos Lagoon","kind":"lagoon","rank":7,"minzoom":7.6},"geometry":{"type":"Point","coordinates":[-50.99,-30.634]}},{"type":"Feature","properties":{"name":"Liddon Gulf","name_en":"Liddon Gulf","kind":"gulf","rank":7,"minzoom":7.6},"geometry":{"type":"Point","coordinates":[-114.137,74.953]}},{"type":"Feature","properties":{"name":"Long Island Sound","name_en":"Long Island Sound","kind":"sound","rank":7,"minzoom":7.6},"geometry":{"type":"Point","coordinates":[-72.869,41.119]}},{"type":"Feature","properties":{"name":"Baie du Massachusetts","name_en":"Massachusetts Bay","kind":"bay","rank":7,"minzoom":7.6},"geometry":{"type":"Point","coordinates":[-70.315,41.902]}},{"type":"Feature","properties":{"name":"Baie du Mecklembourg","name_en":"Bay of Mecklenburg","kind":"bay","rank":7,"minzoom":7.6},"geometry":{"type":"Point","coordinates":[11.857,54.413]}},{"type":"Feature","properties":{"name":"Baie de Monterey","name_en":"Monterey Bay","kind":"bay","rank":7,"minzoom":7.6},"geometry":{"type":"Point","coordinates":[-121.922,36.81]}},{"type":"Feature","properties":{"name":"Détroit de Murchison","name_en":"Murchison Sound","kind":"sound","rank":7,"minzoom":7.6},"geometry":{"type":"Point","coordinates":[-71.37,77.613]}},{"type":"Feature","properties":{"name":"Øresund","name_en":"Øresund","kind":"sound","rank":7,"minzoom":7.6},"geometry":{"type":"Point","coordinates":[12.674,55.52]}},{"type":"Feature","properties":{"name":"Détroit de Palk","name_en":"Palk Strait","kind":"strait","rank":7,"minzoom":7.6},"geometry":{"type":"Point","coordinates":[79.524,9.655]}},{"type":"Feature","properties":{"name":"Baie de Pamlico","name_en":"Pamlico Sound","kind":"sound","rank":7,"minzoom":7.6},"geometry":{"type":"Point","coordinates":[-76.297,35.161]}},{"type":"Feature","properties":{"name":"Peacock Sound","name_en":"Peacock Sound","kind":"sound","rank":7,"minzoom":7.6},"geometry":{"type":"Point","coordinates":[-101.152,-72.608]}},{"type":"Feature","properties":{"name":"Détroit du Prince Albert","name_en":"Prince Albert Sound","kind":"sound","rank":7,"minzoom":7.6},"geometry":{"type":"Point","coordinates":[-116.73,70.388]}},{"type":"Feature","properties":{"name":"Détroit du Prince-de-Galles","name_en":"Prince of Wales Strait","kind":"strait","rank":7,"minzoom":7.6},"geometry":{"type":"Point","coordinates":[-119.664,71.907]}},{"type":"Feature","properties":{"name":"Baie du Prince-William","name_en":"Prince William Sound","kind":"sound","rank":7,"minzoom":7.6},"geometry":{"type":"Point","coordinates":[-147.144,60.648]}},{"type":"Feature","properties":{"name":"Détroit de Qiongzhou","name_en":"Qiongzhou Strait","kind":"strait","rank":7,"minzoom":7.6},"geometry":{"type":"Point","coordinates":[110.484,20.19]}},{"type":"Feature","properties":{"name":"Bassin de la Reine-Charlotte","name_en":"Queen Charlotte Sound","kind":"sound","rank":7,"minzoom":7.6},"geometry":{"type":"Point","coordinates":[-129.91,52.205]}},{"type":"Feature","properties":{"name":"Baie de San Francisco","name_en":"San Francisco Bay","kind":"bay","rank":7,"minzoom":7.6},"geometry":{"type":"Point","coordinates":[-122.387,38.059]}},{"type":"Feature","properties":{"name":"Mer de Savu","name_en":"Savu Sea","kind":"sea","rank":7,"minzoom":7.6},"geometry":{"type":"Point","coordinates":[122.457,-9.784]}},{"type":"Feature","properties":{"name":"Mer de Sibuyan","name_en":"Sibuyan Sea","kind":"sea","rank":7,"minzoom":7.6},"geometry":{"type":"Point","coordinates":[122.453,12.858]}},{"type":"Feature","properties":{"name":"Sognefjord","name_en":"Sognefjord","kind":"fjord","rank":7,"minzoom":7.6},"geometry":{"type":"Point","coordinates":[5.084,61.125]}},{"type":"Feature","properties":{"name":"Détroit de Belle Isle","name_en":"Strait of Belle Isle","kind":"strait","rank":7,"minzoom":7.6},"geometry":{"type":"Point","coordinates":[-55.785,51.774]}},{"type":"Feature","properties":{"name":"Détroit de Tartarie","name_en":"Strait of Tartary","kind":"strait","rank":7,"minzoom":7.6},"geometry":{"type":"Point","coordinates":[141.538,52.942]}},{"type":"Feature","properties":{"name":"Trondheimsfjord","name_en":"Trondheimsfjord","kind":"fjord","rank":7,"minzoom":7.6},"geometry":{"type":"Point","coordinates":[9.309,63.684]}},{"type":"Feature","properties":{"name":"Détroit de Tsugaru","name_en":"Tsugaru Strait","kind":"strait","rank":7,"minzoom":7.6},"geometry":{"type":"Point","coordinates":[140.59,41.404]}},{"type":"Feature","properties":{"name":"Fjord Uummannaq","name_en":"Uummannaq fjord","kind":"fjord","rank":7,"minzoom":7.6},"geometry":{"type":"Point","coordinates":[-52.779,70.963]}},{"type":"Feature","properties":{"name":"Mer des Wadden","name_en":"Wadden Sea","kind":"lagoon","rank":7,"minzoom":7.6},"geometry":{"type":"Point","coordinates":[5.126,53.157]}},{"type":"Feature","properties":{"name":"Baird Inlet","name_en":"Baird Inlet","kind":"inlet","rank":8,"minzoom":7.7},"geometry":{"type":"Point","coordinates":[-163.671,60.73]}},{"type":"Feature","properties":{"name":"Bathurst Inlet","name_en":"Bathurst Inlet","kind":"bay","rank":8,"minzoom":7.7},"geometry":{"type":"Point","coordinates":[-107.654,67.11]}},{"type":"Feature","properties":{"name":"Baie Inútil","name_en":"Inútil Bay","kind":"bay","rank":8,"minzoom":7.7},"geometry":{"type":"Point","coordinates":[-70.23,-53.578]}},{"type":"Feature","properties":{"name":"Canal do Sul","name_en":"Canal do Sul","kind":"channel","rank":8,"minzoom":7.7},"geometry":{"type":"Point","coordinates":[-50.547,-0.084]}},{"type":"Feature","properties":{"name":"Cordova Bay","name_en":"Cordova Bay","kind":"bay","rank":8,"minzoom":7.7},"geometry":{"type":"Point","coordinates":[-132.457,54.799]}},{"type":"Feature","properties":{"name":"Goldsmith Channel","name_en":"Goldsmith Channel","kind":"channel","rank":8,"minzoom":7.7},"geometry":{"type":"Point","coordinates":[-106.668,73.336]}},{"type":"Feature","properties":{"name":"Belouchyïa Gouba","name_en":"Guba Gusinaya","kind":"bay","rank":8,"minzoom":7.7},"geometry":{"type":"Point","coordinates":[145.66,71.828]}},{"type":"Feature","properties":{"name":"Golfe de Kau","name_en":"Kao Bay","kind":"gulf","rank":8,"minzoom":7.7},"geometry":{"type":"Point","coordinates":[128.283,1.755]}},{"type":"Feature","properties":{"name":"Eskimo Lakes","name_en":"Husky Lakes","kind":"lagoon","rank":8,"minzoom":7.7},"geometry":{"type":"Point","coordinates":[-132.992,68.921]}},{"type":"Feature","properties":{"name":"Kaliningrad","name_en":"Kaliningrad","kind":"lagoon","rank":8,"minzoom":7.7},"geometry":{"type":"Point","coordinates":[20.972,55.043]}},{"type":"Feature","properties":{"name":"Lac Pontchartrain","name_en":"Lake Pontchartrain","kind":"lagoon","rank":8,"minzoom":7.7},"geometry":{"type":"Point","coordinates":[-90.15,30.202]}},{"type":"Feature","properties":{"name":"Détroit de Matotchkine","name_en":"Matochkin Strait","kind":"strait","rank":8,"minzoom":7.7},"geometry":{"type":"Point","coordinates":[55.963,73.305]}},{"type":"Feature","properties":{"name":"Crique Minto","name_en":"Minto Inlet","kind":"sound","rank":8,"minzoom":7.7},"geometry":{"type":"Point","coordinates":[-117.868,71.275]}},{"type":"Feature","properties":{"name":"Ozero Mogotoyevo","name_en":"Lake Mogotoyevo","kind":"lagoon","rank":8,"minzoom":7.7},"geometry":{"type":"Point","coordinates":[144.932,72.324]}},{"type":"Feature","properties":{"name":"Détroit de la Reine-Charlotte","name_en":"Queen Charlotte Strait","kind":"strait","rank":8,"minzoom":7.7},"geometry":{"type":"Point","coordinates":[-126.801,50.728]}},{"type":"Feature","properties":{"name":"Richard Collinson Inlet","name_en":"Richard Collinson Inlet","kind":"bay","rank":8,"minzoom":7.7},"geometry":{"type":"Point","coordinates":[-113.688,72.962]}},{"type":"Feature","properties":{"name":"Passage Robeson","name_en":"Robeson Channel","kind":"channel","rank":8,"minzoom":7.7},"geometry":{"type":"Point","coordinates":[-60.388,82.117]}},{"type":"Feature","properties":{"name":"Mer de Samar","name_en":"Samar Sea","kind":"sea","rank":8,"minzoom":7.7},"geometry":{"type":"Point","coordinates":[124.311,11.925]}},{"type":"Feature","properties":{"name":"Détroit de Dampier","name_en":"Dampier Strait","kind":"strait","rank":8,"minzoom":7.7},"geometry":{"type":"Point","coordinates":[131.125,-0.625]}},{"type":"Feature","properties":{"name":"Seno Skyring","name_en":"Seno Skyring","kind":"sound","rank":8,"minzoom":7.7},"geometry":{"type":"Point","coordinates":[-72.509,-52.713]}},{"type":"Feature","properties":{"name":"Seno Otway","name_en":"Seno Otway","kind":"sound","rank":8,"minzoom":7.7},"geometry":{"type":"Point","coordinates":[-71.543,-53.004]}},{"type":"Feature","properties":{"name":"Bassin Sherman","name_en":"Sherman Basin","kind":"bay","rank":8,"minzoom":7.7},"geometry":{"type":"Point","coordinates":[-97.644,67.81]}},{"type":"Feature","properties":{"name":"Détroit de Smith","name_en":"Smith Sound","kind":"sound","rank":8,"minzoom":7.7},"geometry":{"type":"Point","coordinates":[-127.986,51.775]}},{"type":"Feature","properties":{"name":"Lagune de Szczecin","name_en":"Szczecin Lagoon","kind":"lagoon","rank":8,"minzoom":7.7},"geometry":{"type":"Point","coordinates":[14.433,53.768]}},{"type":"Feature","properties":{"name":"Baie de Tayabas","name_en":"Tayabas Bay","kind":"bay","rank":8,"minzoom":7.7},"geometry":{"type":"Point","coordinates":[121.545,13.464]}},{"type":"Feature","properties":{"name":"Mer de Visayan","name_en":"Visayan Sea","kind":"sea","rank":8,"minzoom":7.7},"geometry":{"type":"Point","coordinates":[123.625,11.498]}},{"type":"Feature","properties":{"name":"Baie Wager","name_en":"Wager Bay","kind":"bay","rank":8,"minzoom":7.7},"geometry":{"type":"Point","coordinates":[-89.001,65.556]}},{"type":"Feature","properties":{"name":"Baie de Wynniatt","name_en":"Wynniatt Bay","kind":"bay","rank":8,"minzoom":7.7},"geometry":{"type":"Point","coordinates":[-110.715,72.732]}},{"type":"Feature","properties":{"name":"Lac Bras d'Or","name_en":"Bras d'Or Lake","kind":"lagoon","rank":9,"minzoom":7.8},"geometry":{"type":"Point","coordinates":[-60.813,45.85]}},{"type":"Feature","properties":{"name":"Canal do Norte","name_en":"Canal do Norte","kind":"channel","rank":9,"minzoom":7.8},"geometry":{"type":"Point","coordinates":[-50.744,0.078]}},{"type":"Feature","properties":{"name":"Canal Perigoso","name_en":"Canal Perigoso","kind":"channel","rank":9,"minzoom":7.8},"geometry":{"type":"Point","coordinates":[-49.682,0.11]}},{"type":"Feature","properties":{"name":"Golfe de Leyte","name_en":"Leyte Gulf","kind":"gulf","rank":9,"minzoom":7.8},"geometry":{"type":"Point","coordinates":[125.365,10.843]}},{"type":"Feature","properties":{"name":"Golfe de Ragay","name_en":"Ragay Gulf","kind":"gulf","rank":9,"minzoom":7.8},"geometry":{"type":"Point","coordinates":[122.883,13.361]}},{"type":"Feature","properties":{"name":"Détroit de Bali","name_en":"Bali Strait","kind":"strait","rank":9,"minzoom":7.8},"geometry":{"type":"Point","coordinates":[114.753,-8.59]}},{"type":"Feature","properties":{"name":"Détroit de Surigao","name_en":"Surigao Strait","kind":"strait","rank":9,"minzoom":7.8},"geometry":{"type":"Point","coordinates":[125.364,10.177]}}]}
